{
    "links": {
        "self": "http://www.neowsapp.com/rest/v1/neo/3759749?api_key=iIulBulltgU6a56xZRHN4H3l9WmuAYTsLGpBGhQ2"
    },
    "id": "3759749",
    "neo_reference_id": "3759749",
    "name": "(2016 SJ2)",
    "designation": "2016 SJ2",
    "nasa_jpl_url": "http://ssd.jpl.nasa.gov/sbdb.cgi?sstr=3759749",
    "absolute_magnitude_h": 26.5,
    "estimated_diameter": {
        "kilometers": {
            "estimated_diameter_min": 0.0133215567,
            "estimated_diameter_max": 0.0297879063
        },
        "meters": {
            "estimated_diameter_min": 13.3215566698,
            "estimated_diameter_max": 29.7879062798
        },
        "miles": {
            "estimated_diameter_min": 0.008277629,
            "estimated_diameter_max": 0.0185093411
        },
        "feet": {
            "estimated_diameter_min": 43.7058959846,
            "estimated_diameter_max": 97.7293544391
        }
    },
    "is_potentially_hazardous_asteroid": false,
    "close_approach_data": [
        {
            "close_approach_date": "2014-05-16",
            "close_approach_date_full": "2014-May-16 19:15",
            "epoch_date_close_approach": 1400267700000,
            "relative_velocity": {
                "kilometers_per_second": "20.8264064312",
                "kilometers_per_hour": "74975.063152239",
                "miles_per_hour": "46586.5885459009"
            },
            "miss_distance": {
                "astronomical": "0.3735392112",
                "lunar": "145.3067531568",
                "kilometers": "55880670.357000144",
                "miles": "34722638.4497002272"
            },
            "orbiting_body": "Earth"
        },
        {
            "close_approach_date": "2016-09-22",
            "close_approach_date_full": "2016-Sep-22 04:57",
            "epoch_date_close_approach": 1474520220000,
            "relative_velocity": {
                "kilometers_per_second": "10.9867172066",
                "kilometers_per_hour": "39552.1819439368",
                "miles_per_hour": "24576.1877195534"
            },
            "miss_distance": {
                "astronomical": "0.0124219839",
                "lunar": "4.8321517371",
                "kilometers": "1858302.332614293",
                "miles": "1154695.5255435234"
            },
            "orbiting_body": "Earth"
        },
        {
            "close_approach_date": "2044-05-25",
            "close_approach_date_full": "2044-May-25 20:13",
            "epoch_date_close_approach": 2347819980000,
            "relative_velocity": {
                "kilometers_per_second": "16.3747853659",
                "kilometers_per_hour": "58949.2273172263",
                "miles_per_hour": "36628.7573849732"
            },
            "miss_distance": {
                "astronomical": "0.2329023902",
                "lunar": "90.5990297878",
                "kilometers": "34841701.491828874",
                "miles": "21649629.4003675012"
            },
            "orbiting_body": "Earth"
        },
        {
            "close_approach_date": "2046-10-12",
            "close_approach_date_full": "2046-Oct-12 07:56",
            "epoch_date_close_approach": 2422943760000,
            "relative_velocity": {
                "kilometers_per_second": "18.5594255069",
                "kilometers_per_hour": "66813.9318246704",
                "miles_per_hour": "41515.5789162793"
            },
            "miss_distance": {
                "astronomical": "0.2728337932",
                "lunar": "106.1323455548",
                "kilometers": "40815354.326740484",
                "miles": "25361485.1509433192"
            },
            "orbiting_body": "Earth"
        },
        {
            "close_approach_date": "2149-07-18",
            "close_approach_date_full": "2149-Jul-18 05:43",
            "epoch_date_close_approach": 5665873380000,
            "relative_velocity": {
                "kilometers_per_second": "8.6970729292",
                "kilometers_per_hour": "31309.462545012",
                "miles_per_hour": "19454.4824352604"
            },
            "miss_distance": {
                "astronomical": "0.1333856403",
                "lunar": "51.8870140767",
                "kilometers": "19954207.677466161",
                "miles": "12398969.7029125818"
            },
            "orbiting_body": "Earth"
        }
    ],
    "orbital_data": {
        "orbit_id": "2",
        "orbit_determination_date": "2017-04-06 08:23:39",
        "first_observation_date": "2016-09-25",
        "last_observation_date": "2016-09-27",
        "data_arc_in_days": 2,
        "observations_used": 24,
        "orbit_uncertainty": "8",
        "minimum_orbit_intersection": ".00334731",
        "jupiter_tisserand_invariant": "4.129",
        "epoch_osculation": "2457657.5",
        "eccentricity": ".4563258992029766",
        "semi_major_axis": "1.663203322605474",
        "inclination": "6.035910225354483",
        "ascending_node_longitude": "356.2334518433674",
        "orbital_period": "783.4593046267275",
        "perihelion_distance": ".9042405708601529",
        "perihelion_argument": "315.0289952380213",
        "aphelion_distance": "2.422166074350796",
        "perihelion_time": "2457616.735959323558",
        "mean_anomaly": "18.7311000799345",
        "mean_motion": ".4595005737681792",
        "equinox": "J2000",
        "orbit_class": {
            "orbit_class_type": "APO",
            "orbit_class_description": "Near-Earth asteroid orbits which cross the Earth’s orbit similar to that of 1862 Apollo",
            "orbit_class_range": "a (semi-major axis) > 1.0 AU; q (perihelion) < 1.017 AU"
        }
    },
    "is_sentry_object": false
}